H1 CPF 01  gfz 2022 11 09 13  8132 tandemx   
H2 1003001  6202 36605    2022 11 09 12 59 42 2022 11 14 00 00 42   120 1 1  0 0 0
H9
10 0 59896  82062.000000  0    2314359.383  -6322355.844  -1470877.324
10 0 59896  82182.000000  0    2189783.921  -6507691.310   -576555.370
10 0 59896  82302.000000  0    2024731.152  -6576818.416    327906.885
10 0 59896  82422.000000  0    1824115.328  -6527803.013   1226594.772
10 0 59896  82542.000000  0    1593497.158  -6360890.180   2103682.369
10 0 59896  82662.000000  0    1338946.414  -6078510.074   2943721.726
10 0 59896  82782.000000  0    1066895.440  -5685240.150   3731922.013
10 0 59896  82902.000000  0     783987.124  -5187724.795   4454415.360
10 0 59896  83022.000000  0     496921.028  -4594555.371   5098503.352
10 0 59896  83142.000000  0     212300.750  -3916112.525   5652880.951
10 0 59896  83262.000000  0     -63512.040  -3164374.045   6107832.443
10 0 59896  83382.000000  0    -324534.788  -2352694.157   6455395.742
10 0 59896  83502.000000  0    -565289.903  -1495561.411   6689494.385
10 0 59896  83622.000000  0    -780916.504   -608337.980   6806038.551
10 0 59896  83742.000000  0    -967266.671    293017.171   6802993.212
10 0 59896  83862.000000  0   -1120984.563   1192235.742   6680411.396
10 0 59896  83982.000000  0   -1239566.387   2073033.184   6440432.990
10 0 59896  84102.000000  0   -1321401.084   2919403.102   6087249.805
10 0 59896  84222.000000  0   -1365791.533   3715908.975   5627036.763
10 0 59896  84342.000000  0   -1372954.953   4447968.252   5067849.498
10 0 59896  84462.000000  0   -1344003.076   5102124.856   4419490.048
10 0 59896  84582.000000  0   -1280902.499   5666304.594   3693339.278
10 0 59896  84702.000000  0   -1186415.310   6130046.098   2902160.141
10 0 59896  84822.000000  0   -1064023.817   6484705.798   2059874.477
10 0 59896  84942.000000  0    -917835.999   6723628.969   1181313.668
10 0 59896  85062.000000  0    -752476.638   6842281.015    281951.687
10 0 59896  85182.000000  0    -572966.945   6838338.324   -622374.472
10 0 59896  85302.000000  0    -384595.249   6711735.193  -1515753.781
10 0 59896  85422.000000  0    -192782.704   6464661.956  -2382491.327
10 0 59896  85542.000000  0      -2948.193   6101517.573  -3207389.691
10 0 59896  85662.000000  0     179624.766   5628820.917  -3976018.185
10 0 59896  85782.000000  0     349916.717   5055081.914  -4674965.438
10 0 59896  85902.000000  0     503293.039   4390635.895  -5292069.877
10 0 59896  86022.000000  0     635614.071   3647446.277  -5816624.426
10 0 59896  86142.000000  0     743331.639   2838879.905  -6239552.922
10 0 59896  86262.000000  0     823570.537   1979460.644  -6553555.712
10 0 59896  86382.000000  0     874194.054   1084607.371  -6753223.847
99
